[{"OBJECT_NAME":"STARLINK-30255","OBJECT_ID":"2023-119E","EPOCH":"2026-03-09T22:00:01.999584","MEAN_MOTION":15.16774249,"ECCENTRICITY":0.000133,"INCLINATION":42.9991,"RA_OF_ASC_NODE":79.5096,"ARG_OF_PERICENTER":260.6815,"MEAN_ANOMALY":336.1551,"EPHEMERIS_TYPE":0,"CLASSIFICATION_TYPE":"U","NORAD_CAT_ID":57606,"ELEMENT_SET_NO":999,"REV_AT_EPOCH":562,"BSTAR":0.0048551842,"MEAN_MOTION_DOT":0.00098184,"MEAN_MOTION_DDOT":0},{"OBJECT_NAME":"CZ-4C R\/B","OBJECT_ID":"2023-136B","EPOCH":"2026-03-09T22:23:17.511648","MEAN_MOTION":15.02951771,"ECCENTRICITY":0.01088591,"INCLINATION":98.3028,"RA_OF_ASC_NODE":56.8789,"ARG_OF_PERICENTER":268.7974,"MEAN_ANOMALY":90.0776,"EPHEMERIS_TYPE":0,"CLASSIFICATION_TYPE":"U","NORAD_CAT_ID":57798,"ELEMENT_SET_NO":999,"REV_AT_EPOCH":13700,"BSTAR":0.0002043348,"MEAN_MOTION_DOT":3.042e-5,"MEAN_MOTION_DDOT":0}]
